{
  "norad_id": 42957,
  "name": "IRIDIUM 122",
  "history": [
    {
      "epoch": "2026-03-28T21:34:54.670368Z",
      "apogee_km": 779.1297178450459,
      "perigee_km": 776.2029942724175,
      "latitude_deg": 1.0256397677780115e-06,
      "longitude_deg": -91.29906426485984,
      "height_km": 780.6754702230751,
      "semi_major_axis_km": 7155.803356058732,
      "eccentricity": 0.0002045,
      "inclination_deg": 86.3941,
      "raan_deg": 58.7418,
      "arg_perigee_deg": 88.4954,
      "mean_anomaly_deg": 271.6476,
      "mean_motion_rev_day": 14.3421799
    }
  ]
}